NORAD_CAT_ID,OBJECT_NAME,OBJECT_TYPE,EPOCH,MEAN_MOTION,ECCENTRICITY,INCLINATION,RA_OF_ASC_NODE,ARG_OF_PERICENTER,MEAN_ANOMALY,BSTAR,MEAN_MOTION_DOT,MEAN_MOTION_DDOT,TLE_LINE0,TLE_LINE1,TLE_LINE2,SEMIMAJOR_AXIS,PERIOD,APOGEE,PERIGEE,DECAYED
52461.0,STARLINK-3900,PAYLOAD,2022-06-12 22:00:00,15.7325083,0.0002214,53.2175,80.6851,25.46,162.2246,-0.00063778,-0.00089389,0.0,0 STARLINK-3900,1 52461U 22049L   22163.91667824 -.00089389  00000-0 -63778-3 0  9995,2 52461  53.2175  80.6851 0002214  25.4600 162.2246 15.73250830  1308,6727.75,91.53,351.105,348.126,0.0
52461.0,STARLINK-3900,PAYLOAD,2022-06-13 06:00:02,15.73220446,0.0002295,53.2169,79.0369,22.9047,253.8185,0.00020669,0.00028512,0.0,0 STARLINK-3900,1 52461U 22049L   22164.25002315  .00028512  00000-0  20669-3 0  9992,2 52461  53.2169  79.0369 0002295  22.9047 253.8185 15.73220446  6127,6727.837,91.532,351.246,348.158,0.0
52461.0,STARLINK-3900,PAYLOAD,2022-06-13 14:00:01,15.73173493,0.0002015,53.2171,77.3853,24.7878,340.84,0.00041699,0.00058244,0.0,0 STARLINK-3900,1 52461U 22049L   22164.58334491  .00058244  00000-0  41699-3 0  9992,2 52461  53.2171  77.3853 0002015  24.7878 340.8400 15.73173493  6183,6727.971,91.535,351.191,348.48,0.0
52461.0,STARLINK-3900,PAYLOAD,2022-06-13 22:00:00,15.7323104,0.0002101,53.2175,75.737,25.7456,68.8174,-0.00033418,-0.00047325,0.0,0 STARLINK-3900,1 52461U 22049L   22164.91667824 -.00047325  00000-0 -33418-3 0  9998,2 52461  53.2175  75.7370 0002101  25.7456  68.8174 15.73231040  1309,6727.807,91.531,351.085,348.2580000000001,0.0
52461.0,STARLINK-3900,PAYLOAD,2022-06-14 06:00:00,15.73180839,0.000226,53.2173,74.0887,21.8419,161.6655,6.516100000000001e-05,8.526e-05,0.0,0 STARLINK-3900,1 52461U 22049L   22165.25001157  .00008526  00000-0  65161-4 0  9996,2 52461  53.2173  74.0887 0002260  21.8419 161.6655 15.73180839  6281,6727.95,91.534,351.335,348.2940000000001,0.0
52461.0,STARLINK-3900,PAYLOAD,2022-06-14 14:00:01,15.73174791,0.0002046,53.2175,72.4374,25.0142,247.3936,-0.00013514,-0.00019524,0.0,0 STARLINK-3900,1 52461U 22049L   22165.58334491 -.00019524  00000-0 -13514-3 0  9998,2 52461  53.2175  72.4374 0002046  25.0142 247.3936 15.73174791  1309,6727.967,91.535,351.209,348.456,0.0
52461.0,STARLINK-3900,PAYLOAD,2022-06-14 22:00:00,15.73164449,0.0002214,53.2174,70.7892,29.7126,331.5983,0.000107,0.000144,0.0,0 STARLINK-3900,1 52461U 22049L   22165.91667824  .00014400  00000-0  10700-3 0  9994,2 52461  53.2174  70.7892 0002214  29.7126 331.5983 15.73164449  6395,6727.996999999999,91.535,351.351,348.372,0.0
52461.0,STARLINK-3900,PAYLOAD,2022-06-15 14:00:01,15.73211837,0.0002074,53.2167,67.4892,33.036,146.0878,0.00016911,0.00023191,0.0,0 STARLINK-3900,1 52461U 22049L   22166.58334491  .00023191  00000-0  16911-3 0  9996,2 52461  53.2167  67.4892 0002074  33.0360 146.0878 15.73211837  6499,6727.861,91.532,351.122,348.331,0.0
52461.0,STARLINK-3900,PAYLOAD,2022-06-15 22:00:00,15.73205406,0.00023,53.217,65.8411,35.4501,232.635,7.1714e-05,9.457e-05,0.0,0 STARLINK-3900,1 52461U 22049L   22166.91667824  .00009457  00000-0  71714-4 0  9994,2 52461  53.2170  65.8411 0002300  35.4501 232.6350 15.73205406  1304,6727.88,91.533,351.292,348.19699999999995,0.0
52461.0,STARLINK-3900,PAYLOAD,2022-06-16 02:00:01,15.73225008,0.0002355,53.2172,65.0172,33.3946,99.1873,0.000325,0.00045289,0.0,0 STARLINK-3900,1 52461U 22049L   22167.08334491  .00045289  00000-0  32500-3 0  9996,2 52461  53.2172  65.0172 0002355  33.3946  99.1873 15.73225008  1308,6727.824000000001,91.532,351.273,348.10400000000016,0.0
52461.0,STARLINK-3900,PAYLOAD,2022-06-19 14:00:01,15.73163766,0.0001844,53.2158,47.6945,32.2669,134.1157,0.00069319,0.00097653,0.0,0 STARLINK-3900,1 52461U 22049L   22170.58334491  .00097653  00000-0  69319-3 0  9995,2 52461  53.2158  47.6945 0001844  32.2669 134.1157 15.73163766  1305,6727.998000000001,91.535,351.10400000000016,348.62300000000016,0.0
52461.0,STARLINK-3900,PAYLOAD,2022-06-19 22:00:00,15.73235587,0.000202,53.2161,46.047,28.2804,227.0235,-0.0004911,-0.00069091,0.0,0 STARLINK-3900,1 52461U 22049L   22170.91667824 -.00069091  00000-0 -49110-3 0  9995,2 52461  53.2161  46.0470 0002020  28.2804 227.0235 15.73235587  1308,6727.794,91.531,351.01800000000014,348.3,0.0
52461.0,STARLINK-3900,PAYLOAD,2022-06-20 06:00:00,15.73231311,0.0002029,53.2162,44.3971,23.2994,320.932,-0.00039228,-0.00055392,0.0,0 STARLINK-3900,1 52461U 22049L   22171.25001157 -.00055392  00000-0 -39228-3 0  9992,2 52461  53.2162  44.3971 0002029  23.2994 320.9320 15.73231311  7237,6727.806,91.531,351.036,348.306,0.0
52461.0,STARLINK-3900,PAYLOAD,2022-06-20 14:00:01,15.73155042,0.0001896,53.2165,42.7458,31.8212,41.3646,0.00061544,0.00086482,0.0,0 STARLINK-3900,1 52461U 22049L   22171.58334491  .00086482  00000-0  61544-3 0  9996,2 52461  53.2165  42.7458 0001896  31.8212  41.3646 15.73155042  1304,6728.023,91.536,351.164,348.61300000000006,0.0
52461.0,STARLINK-3900,PAYLOAD,2022-06-20 22:00:00,15.73239376,0.0002109,53.2165,41.098,28.0079,134.0855,-0.00054991,-0.0007723,0.0,0 STARLINK-3900,1 52461U 22049L   22171.91667824 -.00077230  00000-0 -54991-3 0  9993,2 52461  53.2165  41.0980 0002109  28.0079 134.0855 15.73239376  7337,6727.783,91.531,351.06699999999995,348.22900000000016,0.0
52461.0,STARLINK-3900,PAYLOAD,2022-06-21 06:00:00,15.73201927,0.0001959,53.2157,39.4483,22.8499,228.1837,0.00014861,0.00020289,0.0,0 STARLINK-3900,1 52461U 22049L   22172.25001157  .00020289  00000-0  14861-3 0  9994,2 52461  53.2157  39.4483 0001959  22.8499 228.1837 15.73201927  7388,6727.89,91.533,351.0730000000001,348.43699999999984,0.0
52461.0,STARLINK-3900,PAYLOAD,2022-06-21 14:00:01,15.73233006,0.0001783,53.2161,37.7973,29.0754,310.8857,-0.00015403,-0.00022213,0.0,0 STARLINK-3900,1 52461U 22049L   22172.58334491 -.00022213  00000-0 -15403-3 0  9994,2 52461  53.2161  37.7973 0001783  29.0754 310.8857 15.73233006  1306,6727.801,91.531,350.866,348.467,0.0
52461.0,STARLINK-3900,PAYLOAD,2022-06-21 22:00:00,15.73210421,0.0002043,53.2162,36.1498,28.4549,40.4658,4.7459e-05,6.047e-05,0.0,0 STARLINK-3900,1 52461U 22049L   22172.91667824  .00006047  00000-0  47459-4 0  9992,2 52461  53.2162  36.1498 0002043  28.4549  40.4658 15.73210421  1308,6727.865,91.533,351.105,348.356,0.0
52461.0,STARLINK-3900,PAYLOAD,2022-06-22 06:00:00,15.73164945,0.0001645,53.217,34.4941,26.1432,131.6376,0.00045434,0.00063532,0.0,0 STARLINK-3900,1 52461U 22049L   22173.25001157  .00063532  00000-0  45434-3 0  9993,2 52461  53.2170  34.4941 0001645  26.1432 131.6376 15.73164945  7545,6727.995,91.535,350.967,348.75300000000016,0.0
52461.0,STARLINK-3900,PAYLOAD,2022-06-22 14:00:01,15.73188186,0.0001768,53.2166,32.8489,24.7871,221.9929,0.00035315,0.00049209,0.0,0 STARLINK-3900,1 52461U 22049L   22173.58334491  .00049209  00000-0  35315-3 0  9991,2 52461  53.2166  32.8489 0001768  24.7871 221.9929 15.73188186  1304,6727.929,91.534,350.983,348.60400000000016,0.0
52461.0,STARLINK-3900,PAYLOAD,2022-06-22 16:00:00,15.7323086,0.0001813,53.2167,32.4371,23.6497,335.3505,-0.00023548,-0.00033583,0.0,0 STARLINK-3900,1 52461U 22049L   22173.66667824 -.00033583  00000-0 -23548-3 0  9994,2 52461  53.2167  32.4371 0001813  23.6497 335.3505 15.73230860  7611,6727.807,91.531,350.892,348.452,0.0
52461.0,STARLINK-3900,PAYLOAD,2022-06-22 22:00:00,15.73206965,0.000198,53.2163,31.2015,20.0189,315.7129,-7.2183e-05,-0.00010742,0.0,0 STARLINK-3900,1 52461U 22049L   22173.91667824 -.00010742  00000-0 -72183-4 0  9994,2 52461  53.2163  31.2015 0001980  20.0189 315.7129 15.73206965  1306,6727.875,91.533,351.07199999999995,348.408,0.0
52461.0,STARLINK-3900,PAYLOAD,2022-06-23 06:00:00,15.7321854,0.0001907,53.2158,29.5512,17.7607,46.889,9.6307e-05,0.00012927,0.0,0 STARLINK-3900,1 52461U 22049L   22174.25001157  .00012927  00000-0  96307-4 0  9992,2 52461  53.2158  29.5512 0001907  17.7607  46.8890 15.73218540  7708,6727.842,91.532,350.99,348.4240000000001,0.0
52461.0,STARLINK-3900,PAYLOAD,2022-06-23 14:00:01,15.7326004,0.0001781999999999,53.2162,27.9006,26.5069,127.0927,-0.00061119,-0.00085752,0.0,0 STARLINK-3900,1 52461U 22049L   22174.58334491 -.00085752  00000-0 -61119-3 0  9998,2 52461  53.2162  27.9006 0001782  26.5069 127.0927 15.73260040  1309,6727.724,91.53,350.788,348.39,0.0
52461.0,STARLINK-3900,PAYLOAD,2022-06-23 22:00:00,15.731553699999996,0.0002157,53.2163,26.2534,28.5902,213.9697,0.00024043,0.00033193,0.0,0 STARLINK-3900,1 52461U 22049L   22174.91667824  .00033193  00000-0  24043-3 0  9999,2 52461  53.2163  26.2534 0002157  28.5902 213.9697 15.73155370  7802,6728.022,91.536,351.339,348.436,0.0
52461.0,STARLINK-3900,PAYLOAD,2022-06-24 06:00:02,15.7321926,0.0002067,53.2164,24.6026,28.4723,303.0936,-0.0001967,-0.0002816,0.0,0 STARLINK-3900,1 52461U 22049L   22175.25002315 -.00028160  00000-0 -19670-3 0  9995,2 52461  53.2164  24.6026 0002067  28.4723 303.0936 15.73219260  7863,6727.84,91.532,351.096,348.315,0.0
52461.0,STARLINK-3900,PAYLOAD,2022-06-24 14:00:01,15.73209889,0.0002104,53.2166,22.9522,36.3819,24.04300000000001,-0.00029595,-0.00041971,0.0,0 STARLINK-3900,1 52461U 22049L   22175.58334491 -.00041971  00000-0 -29595-3 0  9996,2 52461  53.2166  22.9522 0002104  36.3819  24.0430 15.73209889  1301,6727.8669999999975,91.533,351.148,348.316,0.0
52461.0,STARLINK-3900,PAYLOAD,2022-06-24 22:00:01,15.73161098,0.0002398,53.2162,21.3047,34.5026,114.9128,0.00035354,0.00049209,0.0,0 STARLINK-3900,1 52461U 22049L   22175.91668981  .00049209  00000-0  35354-3 0  9997,2 52461  53.2162  21.3047 0002398  34.5026 114.9128 15.73161098  1309,6728.005999999999,91.535,351.4840000000001,348.2580000000001,0.0
52461.0,STARLINK-3900,PAYLOAD,2022-06-25 06:00:00,15.73239309,0.0002166,53.2157,19.6542,33.8306,204.411,-0.00064843,-0.00090811,0.0,0 STARLINK-3900,1 52461U 22049L   22176.25001157 -.00090811  00000-0 -64843-3 0  9993,2 52461  53.2157  19.6542 0002166  33.8306 204.4110 15.73239309  8011,6727.783,91.531,351.105,348.191,0.0
